[{"OBJECT_NAME":"ONEWEB-0697","OBJECT_ID":"2024-188K","EPOCH":"2026-05-22T03:08:55.737024","MEAN_MOTION":13.11415515,"ECCENTRICITY":0.0001054,"INCLINATION":87.891,"RA_OF_ASC_NODE":26.2509,"ARG_OF_PERICENTER":82.6154,"MEAN_ANOMALY":277.5094,"EPHEMERIS_TYPE":0,"CLASSIFICATION_TYPE":"U","NORAD_CAT_ID":61603,"ELEMENT_SET_NO":999,"REV_AT_EPOCH":8103,"BSTAR":0.0015821,"MEAN_MOTION_DOT":5.73e-06,"MEAN_MOTION_DDOT":0.0},{"OBJECT_NAME":"ONEWEB-0698","OBJECT_ID":"2024-188L","EPOCH":"2026-05-22T02:37:10.649856","MEAN_MOTION":13.1141833,"ECCENTRICITY":0.0001311,"INCLINATION":87.8907,"RA_OF_ASC_NODE":26.2698,"ARG_OF_PERICENTER":40.4818,"MEAN_ANOMALY":319.6407,"EPHEMERIS_TYPE":0,"CLASSIFICATION_TYPE":"U","NORAD_CAT_ID":61604,"ELEMENT_SET_NO":999,"REV_AT_EPOCH":8105,"BSTAR":6.7308e-05,"MEAN_MOTION_DOT":3.7e-07,"MEAN_MOTION_DDOT":0.0},{"OBJECT_NAME":"ONEWEB-0699","OBJECT_ID":"2024-188M","EPOCH":"2026-05-22T04:15:46.083744","MEAN_MOTION":13.10371064,"ECCENTRICITY":0.0001191,"INCLINATION":87.8852,"RA_OF_ASC_NODE":41.4435,"ARG_OF_PERICENTER":74.751,"MEAN_ANOMALY":285.3749,"EPHEMERIS_TYPE":0,"CLASSIFICATION_TYPE":"U","NORAD_CAT_ID":61605,"ELEMENT_SET_NO":999,"REV_AT_EPOCH":7990,"BSTAR":0.0014789,"MEAN_MOTION_DOT":5.29e-06,"MEAN_MOTION_DDOT":0.0},{"OBJECT_NAME":"ONEWEB-0700","OBJECT_ID":"2024-188N","EPOCH":"2026-05-22T04:18:09.309888","MEAN_MOTION":13.10370623,"ECCENTRICITY":0.0001233,"INCLINATION":87.8868,"RA_OF_ASC_NODE":41.3476,"ARG_OF_PERICENTER":92.509,"MEAN_ANOMALY":267.6178,"EPHEMERIS_TYPE":0,"CLASSIFICATION_TYPE":"U","NORAD_CAT_ID":61606,"ELEMENT_SET_NO":999,"REV_AT_EPOCH":7989,"BSTAR":0.0011816,"MEAN_MOTION_DOT":4.25e-06,"MEAN_MOTION_DDOT":0.0},{"OBJECT_NAME":"ONEWEB-0701","OBJECT_ID":"2024-188P","EPOCH":"2026-05-22T02:52:05.055744","MEAN_MOTION":13.10370538,"ECCENTRICITY":0.0001001,"INCLINATION":87.8852,"RA_OF_ASC_NODE":41.4535,"ARG_OF_PERICENTER":72.738,"MEAN_ANOMALY":287.3857,"EPHEMERIS_TYPE":0,"CLASSIFICATION_TYPE":"U","NORAD_CAT_ID":61607,"ELEMENT_SET_NO":999,"REV_AT_EPOCH":7989,"BSTAR":-0.0010081,"MEAN_MOTION_DOT":-3.39e-06,"MEAN_MOTION_DDOT":0.0},{"OBJECT_NAME":"ONEWEB-0702","OBJECT_ID":"2024-188Q","EPOCH":"2026-05-22T01:53:14.315424","MEAN_MOTION":13.11414834,"ECCENTRICITY":8.64e-05,"INCLINATION":87.8927,"RA_OF_ASC_NODE":26.1768,"ARG_OF_PERICENTER":100.4554,"MEAN_ANOMALY":259.6672,"EPHEMERIS_TYPE":0,"CLASSIFICATION_TYPE":"U","NORAD_CAT_ID":61608,"ELEMENT_SET_NO":999,"REV_AT_EPOCH":8106,"BSTAR":-0.0010001,"MEAN_MOTION_DOT":-3.42e-06,"MEAN_MOTION_DDOT":0.0},{"OBJECT_NAME":"ONEWEB-0704","OBJECT_ID":"2024-188R","EPOCH":"2026-05-22T02:35:22.579872","MEAN_MOTION":13.10369352,"ECCENTRICITY":0.0001012,"INCLINATION":87.8868,"RA_OF_ASC_NODE":41.4433,"ARG_OF_PERICENTER":110.9023,"MEAN_ANOMALY":249.2213,"EPHEMERIS_TYPE":0,"CLASSIFICATION_TYPE":"U","NORAD_CAT_ID":61609,"ELEMENT_SET_NO":999,"REV_AT_EPOCH":7987,"BSTAR":0.00065942,"MEAN_MOTION_DOT":2.43e-06,"MEAN_MOTION_DDOT":0.0},{"OBJECT_NAME":"ONEWEB-0705","OBJECT_ID":"2024-188S","EPOCH":"2026-05-22T02:42:31.631904","MEAN_MOTION":13.10371739,"ECCENTRICITY":0.0001881,"INCLINATION":87.8858,"RA_OF_ASC_NODE":41.4482,"ARG_OF_PERICENTER":114.8128,"MEAN_ANOMALY":245.3195,"EPHEMERIS_TYPE":0,"CLASSIFICATION_TYPE":"U","NORAD_CAT_ID":61610,"ELEMENT_SET_NO":999,"REV_AT_EPOCH":7204,"BSTAR":0.0001415,"MEAN_MOTION_DOT":6.2e-07,"MEAN_MOTION_DDOT":0.0},{"OBJECT_NAME":"ONEWEB-0706","OBJECT_ID":"2024-188T","EPOCH":"2026-05-22T02:21:01.956384","MEAN_MOTION":13.10372044,"ECCENTRICITY":0.0001379,"INCLINATION":87.8853,"RA_OF_ASC_NODE":41.458,"ARG_OF_PERICENTER":94.7717,"MEAN_ANOMALY":265.3568,"EPHEMERIS_TYPE":0,"CLASSIFICATION_TYPE":"U","NORAD_CAT_ID":61611,"ELEMENT_SET_NO":999,"REV_AT_EPOCH":7996,"BSTAR":0.0019126000000000002,"MEAN_MOTION_DOT":6.8e-06,"MEAN_MOTION_DDOT":0.0},{"OBJECT_NAME":"ONEWEB-0707","OBJECT_ID":"2024-188U","EPOCH":"2026-05-22T04:20:32.809056","MEAN_MOTION":13.10370794,"ECCENTRICITY":0.0001373,"INCLINATION":87.8857,"RA_OF_ASC_NODE":41.4341,"ARG_OF_PERICENTER":92.8501,"MEAN_ANOMALY":267.2783,"EPHEMERIS_TYPE":0,"CLASSIFICATION_TYPE":"U","NORAD_CAT_ID":61612,"ELEMENT_SET_NO":999,"REV_AT_EPOCH":7991,"BSTAR":0.0010305,"MEAN_MOTION_DOT":3.72e-06,"MEAN_MOTION_DDOT":0.0},{"OBJECT_NAME":"ONEWEB-0708","OBJECT_ID":"2024-188V","EPOCH":"2026-05-22T02:56:52.009152","MEAN_MOTION":13.10371349,"ECCENTRICITY":0.0002067,"INCLINATION":87.8847,"RA_OF_ASC_NODE":41.4662,"ARG_OF_PERICENTER":94.5301,"MEAN_ANOMALY":265.6063,"EPHEMERIS_TYPE":0,"CLASSIFICATION_TYPE":"U","NORAD_CAT_ID":61613,"ELEMENT_SET_NO":999,"REV_AT_EPOCH":7988,"BSTAR":-0.001357,"MEAN_MOTION_DOT":-4.61e-06,"MEAN_MOTION_DDOT":0.0}]