ONEWEB-0697             
1 61603U 24188K   26142.13120066  .00000573  00000+0  15821-2 0  9996
2 61603  87.8910  26.2509 0001054  82.6154 277.5094 13.11415515 81034
ONEWEB-0698             
1 61604U 24188L   26142.10915104  .00000037  00000+0  67308-4 0  9993
2 61604  87.8907  26.2698 0001311  40.4818 319.6407 13.11418330 81051
ONEWEB-0699             
1 61605U 24188M   26142.17761671  .00000529  00000+0  14789-2 0  9998
2 61605  87.8852  41.4435 0001191  74.7510 285.3749 13.10371064 79904
ONEWEB-0700             
1 61606U 24188N   26142.17927442  .00000425  00000+0  11816-2 0  9992
2 61606  87.8868  41.3476 0001233  92.5090 267.6178 13.10370623 79891
ONEWEB-0701             
1 61607U 24188P   26142.11950296 -.00000339  00000+0 -10081-2 0  9999
2 61607  87.8852  41.4535 0001001  72.7380 287.3857 13.10370538 79895
ONEWEB-0702             
1 61608U 24188Q   26142.07863791 -.00000342  00000+0 -10001-2 0  9994
2 61608  87.8927  26.1768 0000864 100.4554 259.6672 13.11414834 81063
ONEWEB-0704             
1 61609U 24188R   26142.10790023  .00000243  00000+0  65942-3 0  9999
2 61609  87.8868  41.4433 0001012 110.9023 249.2213 13.10369352 79875
ONEWEB-0705             
1 61610U 24188S   26142.11286611  .00000062  00000+0  14150-3 0  9999
2 61610  87.8858  41.4482 0001881 114.8128 245.3195 13.10371739 72043
ONEWEB-0706             
1 61611U 24188T   26142.09793931  .00000680  00000+0  19126-2 0  9998
2 61611  87.8853  41.4580 0001379  94.7717 265.3568 13.10372044 79964
ONEWEB-0707             
1 61612U 24188U   26142.18093529  .00000372  00000+0  10305-2 0  9993
2 61612  87.8857  41.4341 0001373  92.8501 267.2783 13.10370794 79913
ONEWEB-0708             
1 61613U 24188V   26142.12282418 -.00000461  00000+0 -13570-2 0  9993
2 61613  87.8847  41.4662 0002067  94.5301 265.6063 13.10371349 79883
